{"type": "FeatureCollection", "features": [ {"type": "Feature", "properties": {"norad_id": 65304, "name": "DRAGON CRS-33", "group": "stations", "lat": -41.008670763470484, "lon": 108.58807466209812, "alt_km": 421.77553809351593, "timestamp": "2025-12-10T18:56:58.849176+00:00", "meta": {"OBJECT_NAME": "DRAGON CRS-33", "OBJECT_ID": "2025-186A", "EPOCH": "2025-12-10T03:42:55.481184", "MEAN_MOTION": 15.49465664, "ECCENTRICITY": 0.0003395, "INCLINATION": 51.6306, "RA_OF_ASC_NODE": 155.2782, "ARG_OF_PERICENTER": 228.7876, "MEAN_ANOMALY": 131.282, "EPHEMERIS_TYPE": 0, "CLASSIFICATION_TYPE": "U", "NORAD_CAT_ID": 65304, "ELEMENT_SET_NO": 999, "REV_AT_EPOCH": 11, "BSTAR": 0.00027248017, "MEAN_MOTION_DOT": 0.00014837, "MEAN_MOTION_DDOT": 0}, "tle": {"line1": "1 65304U 25186A   25344.15480881  .00014837  00000+0  27248-3 0  9991", "line2": "2 65304  51.6306 155.2782 0003395 228.7876 131.2820 15.49465664   110"}}, "geometry": {"type": "Point", "coordinates": [108.58807466209812, -41.008670763470484]}}, {"type": "Feature", "properties": {"norad_id": 65586, "name": "PROGRESS-MS 32", "group": "stations", "lat": -41.008670433567325, "lon": 108.58807529485637, "alt_km": 421.7755381016932, "timestamp": "2025-12-10T18:56:58.849185+00:00", "meta": {"OBJECT_NAME": "PROGRESS-MS 32", "OBJECT_ID": "2025-204A", "EPOCH": "2025-12-10T03:42:55.481184", "MEAN_MOTION": 15.49465664, "ECCENTRICITY": 0.0003395, "INCLINATION": 51.6306, "RA_OF_ASC_NODE": 155.2782, "ARG_OF_PERICENTER": 228.7876, "MEAN_ANOMALY": 131.282, "EPHEMERIS_TYPE": 0, "CLASSIFICATION_TYPE": "U", "NORAD_CAT_ID": 65586, "ELEMENT_SET_NO": 999, "REV_AT_EPOCH": 27, "BSTAR": 0.00027248017, "MEAN_MOTION_DOT": 0.00014837, "MEAN_MOTION_DDOT": 0}, "tle": {"line1": "1 65586U 25204A   25344.15480881  .00014837  00000+0  27248-3 0  9994", "line2": "2 65586  51.6306 155.2782 0003395 228.7876 131.2820 15.49465664   279"}}, "geometry": {"type": "Point", "coordinates": [108.58807529485637, -41.008670433567325]}}, {"type": "Feature", "properties": {"norad_id": 65616, "name": "CYGNUS NG-23", "group": "stations", "lat": -41.00867006700816, "lon": 108.58807599792128, "alt_km": 421.7755381107809, "timestamp": "2025-12-10T18:56:58.849195+00:00", "meta": {"OBJECT_NAME": "CYGNUS NG-23", "OBJECT_ID": "2025-208A", "EPOCH": "2025-12-10T03:42:55.481184", "MEAN_MOTION": 15.49465664, "ECCENTRICITY": 0.0003395, "INCLINATION": 51.6306, "RA_OF_ASC_NODE": 155.2782, "ARG_OF_PERICENTER": 228.7876, "MEAN_ANOMALY": 131.282, "EPHEMERIS_TYPE": 0, "CLASSIFICATION_TYPE": "U", "NORAD_CAT_ID": 65616, "ELEMENT_SET_NO": 999, "REV_AT_EPOCH": 22, "BSTAR": 0.00027248017, "MEAN_MOTION_DOT": 0.00014837, "MEAN_MOTION_DDOT": 0}, "tle": {"line1": "1 65616U 25208A   25344.15480881  .00014837  00000+0  27248-3 0  9992", "line2": "2 65616  51.6306 155.2782 0003395 228.7876 131.2820 15.49465664   228"}}, "geometry": {"type": "Point", "coordinates": [108.58807599792128, -41.00867006700816]}}, {"type": "Feature", "properties": {"norad_id": 65729, "name": "DRAGONFLY", "group": "stations", "lat": 38.840970433659564, "lon": -73.90527630554186, "alt_km": 353.9536201067631, "timestamp": "2025-12-10T18:56:58.849208+00:00", "meta": {"OBJECT_NAME": "DRAGONFLY", "OBJECT_ID": "1998-067XH", "EPOCH": "2025-12-10T10:46:42.048192", "MEAN_MOTION": 15.70885293, "ECCENTRICITY": 0.0006568, "INCLINATION": 51.625, "RA_OF_ASC_NODE": 147.4857, "ARG_OF_PERICENTER": 262.4746, "MEAN_ANOMALY": 97.5505, "EPHEMERIS_TYPE": 0, "CLASSIFICATION_TYPE": "U", "NORAD_CAT_ID": 65729, "ELEMENT_SET_NO": 999, "REV_AT_EPOCH": 1280, "BSTAR": 0.0016627, "MEAN_MOTION_DOT": 0.00217091, "MEAN_MOTION_DDOT": 0}, "tle": {"line1": "1 65729U 98067XH  25344.44909778  .00217091  00000+0  16627-2 0  9998", "line2": "2 65729  51.6250 147.4857 0006568 262.4746  97.5505 15.70885293 12802"}}, "geometry": {"type": "Point", "coordinates": [-73.90527630554186, 38.840970433659564]}}, {"type": "Feature", "properties": {"norad_id": 65731, "name": "1998-067XK", "group": "stations", "lat": -10.29391274295936, "lon": -24.602912778211156, "alt_km": 371.94306969233276, "timestamp": "2025-12-10T18:56:58.849218+00:00", "meta": {"OBJECT_NAME": "1998-067XK", "OBJECT_ID": "1998-067XK", "EPOCH": "2025-12-10T11:59:54.530016", "MEAN_MOTION": 15.65134348, "ECCENTRICITY": 0.0005181, "INCLINATION": 51.6281, "RA_OF_ASC_NODE": 148.5918, "ARG_OF_PERICENTER": 231.8122, "MEAN_ANOMALY": 128.2407, "EPHEMERIS_TYPE": 0, "CLASSIFICATION_TYPE": "U", "NORAD_CAT_ID": 65731, "ELEMENT_SET_NO": 999, "REV_AT_EPOCH": 1279, "BSTAR": 0.0012259, "MEAN_MOTION_DOT": 0.00124892, "MEAN_MOTION_DDOT": 0}, "tle": {"line1": "1 65731U 98067XK  25344.49993669  .00124892  00000+0  12259-2 0  9991", "line2": "2 65731  51.6281 148.5918 0005181 231.8122 128.2407 15.65134348 12790"}}, "geometry": {"type": "Point", "coordinates": [-24.602912778211156, -10.29391274295936]}}, {"type": "Feature", "properties": {"norad_id": 65732, "name": "RSP-03", "group": "stations", "lat": 26.100883475274564, "lon": -56.3808527713194, "alt_km": 361.7654372344932, "timestamp": "2025-12-10T18:56:58.849228+00:00", "meta": {"OBJECT_NAME": "RSP-03", "OBJECT_ID": "1998-067XL", "EPOCH": "2025-12-10T12:12:40.904064", "MEAN_MOTION": 15.678372, "ECCENTRICITY": 0.0005896, "INCLINATION": 51.6265, "RA_OF_ASC_NODE": 147.8923, "ARG_OF_PERICENTER": 236.0858, "MEAN_ANOMALY": 123.9578, "EPHEMERIS_TYPE": 0, "CLASSIFICATION_TYPE": "U", "NORAD_CAT_ID": 65732, "ELEMENT_SET_NO": 999, "REV_AT_EPOCH": 1281, "BSTAR": 0.0013955, "MEAN_MOTION_DOT": 0.00159362, "MEAN_MOTION_DDOT": 0}, "tle": {"line1": "1 65732U 98067XL  25344.50880676  .00159362  00000+0  13955-2 0  9991", "line2": "2 65732  51.6265 147.8923 0005896 236.0858 123.9578 15.67837200 12810"}}, "geometry": {"type": "Point", "coordinates": [-56.3808527713194, 26.100883475274564]}}, {"type": "Feature", "properties": {"norad_id": 65733, "name": "GHS-01", "group": "stations", "lat": 16.280600236809686, "lon": 158.5996536739916, "alt_km": 348.9789939730026, "timestamp": "2025-12-10T18:56:58.849238+00:00", "meta": {"OBJECT_NAME": "GHS-01", "OBJECT_ID": "1998-067XM", "EPOCH": "2025-12-09T18:28:18.827904", "MEAN_MOTION": 15.73188946, "ECCENTRICITY": 0.00069378, "INCLINATION": 51.6282, "RA_OF_ASC_NODE": 150.4557, "ARG_OF_PERICENTER": 260.0742, "MEAN_ANOMALY": 99.9474, "EPHEMERIS_TYPE": 0, "CLASSIFICATION_TYPE": "U", "NORAD_CAT_ID": 65733, "ELEMENT_SET_NO": 999, "REV_AT_EPOCH": 1271, "BSTAR": 0.0015641531, "MEAN_MOTION_DOT": 0.00225395, "MEAN_MOTION_DDOT": 0}, "tle": {"line1": "1 65733U 98067XM  25343.76966236  .00225395  00000+0  15642-2 0  9991", "line2": "2 65733  51.6282 150.4557 0006937 260.0742  99.9474 15.73188946 12718"}}, "geometry": {"type": "Point", "coordinates": [158.5996536739916, 16.280600236809686]}}, {"type": "Feature", "properties": {"norad_id": 65941, "name": "YOTSUBA-KULOVER", "group": "stations", "lat": -1.7812432015441828, "lon": 148.3649497306596, "alt_km": 391.919567416322, "timestamp": "2025-12-10T18:56:58.849248+00:00", "meta": {"OBJECT_NAME": "YOTSUBA-KULOVER", "OBJECT_ID": "1998-067XN", "EPOCH": "2025-12-10T06:39:08.151552", "MEAN_MOTION": 15.58984772, "ECCENTRICITY": 0.00015635, "INCLINATION": 51.6286, "RA_OF_ASC_NODE": 152.3518, "ARG_OF_PERICENTER": 229.167, "MEAN_ANOMALY": 130.9187, "EPHEMERIS_TYPE": 0, "CLASSIFICATION_TYPE": "U", "NORAD_CAT_ID": 65941, "ELEMENT_SET_NO": 999, "REV_AT_EPOCH": 947, "BSTAR": 0.0011499536, "MEAN_MOTION_DOT": 0.00091734, "MEAN_MOTION_DDOT": 0}, "tle": {"line1": "1 65941U 98067XN  25344.27717768  .00091734  00000+0  11500-2 0  9990", "line2": "2 65941  51.6286 152.3518 0001563 229.1670 130.9187 15.58984772  9477"}}, "geometry": {"type": "Point", "coordinates": [148.3649497306596, -1.7812432015441828]}}, {"type": "Feature", "properties": {"norad_id": 65942, "name": "BOTAN", "group": "stations", "lat": -41.13811924179873, "lon": 105.33878188885097, "alt_km": 385.08550627089244, "timestamp": "2025-12-10T18:56:58.849258+00:00", "meta": {"OBJECT_NAME": "BOTAN", "OBJECT_ID": "1998-067XP", "EPOCH": "2025-12-09T18:37:41.598624", "MEAN_MOTION": 15.6202186, "ECCENTRICITY": 0.00035332, "INCLINATION": 51.6281, "RA_OF_ASC_NODE": 154.2559, "ARG_OF_PERICENTER": 214.7567, "MEAN_ANOMALY": 145.3196, "EPHEMERIS_TYPE": 0, "CLASSIFICATION_TYPE": "U", "NORAD_CAT_ID": 65942, "ELEMENT_SET_NO": 999, "REV_AT_EPOCH": 940, "BSTAR": 0.0013930428, "MEAN_MOTION_DOT": 0.00125565, "MEAN_MOTION_DDOT": 0}, "tle": {"line1": "1 65942U 98067XP  25343.77617591  .00125565  00000+0  13930-2 0  9997", "line2": "2 65942  51.6281 154.2559 0003533 214.7567 145.3196 15.62021860  9401"}}, "geometry": {"type": "Point", "coordinates": [105.33878188885097, -41.13811924179873]}}, {"type": "Feature", "properties": {"norad_id": 65943, "name": "E-KAGAKU-1", "group": "stations", "lat": -1.74816508685442, "lon": 148.38523089755066, "alt_km": 394.6232295039508, "timestamp": "2025-12-10T18:56:58.849268+00:00", "meta": {"OBJECT_NAME": "E-KAGAKU-1", "OBJECT_ID": "1998-067XQ", "EPOCH": "2025-12-10T06:39:08.237952", "MEAN_MOTION": 15.5900432, "ECCENTRICITY": 0.00052507, "INCLINATION": 51.6298, "RA_OF_ASC_NODE": 152.3458, "ARG_OF_PERICENTER": 191.2269, "MEAN_ANOMALY": 168.8608, "EPHEMERIS_TYPE": 0, "CLASSIFICATION_TYPE": "U", "NORAD_CAT_ID": 65943, "ELEMENT_SET_NO": 999, "REV_AT_EPOCH": 947, "BSTAR": 0.0012588803, "MEAN_MOTION_DOT": 0.00100705, "MEAN_MOTION_DDOT": 0}, "tle": {"line1": "1 65943U 98067XQ  25344.27717868  .00100705  00000+0  12589-2 0  9990", "line2": "2 65943  51.6298 152.3458 0005250 191.2269 168.8608 15.59004320  9476"}}, "geometry": {"type": "Point", "coordinates": [148.38523089755066, -1.74816508685442]}}]}